ELEKTRO-L 3             
1 44903U 19095A   26194.50479887 -.00000100  00000+0  00000+0 0  9994
2 44903   0.3213  82.1165 0001140  19.5761  87.4025  1.00271072 23976
SHIJIAN-20 (SJ-20)      
1 44910U 19097A   26194.31642183  .00000128  00000+0  00000+0 0  9993
2 44910   4.9827  74.7433 0015275  57.3322 317.8361  1.00268138 23968
TJS-5                   
1 44978U 20002A   26194.68315872 -.00000347  00000+0  00000+0 0  9991
2 44978   0.0604  76.6380 0007837 337.1688 231.1890  1.00270087 23975
GSAT-30                 
1 45026U 20005A   26194.36356391 -.00000168  00000+0  00000+0 0  9996
2 45026   0.0431  91.9484 0003230   3.0283  50.1405  1.00270900 23779
EUTELSAT KONNECT        
1 45027U 20005B   26194.17197611  .00000048  00000+0  00000+0 0  9990
2 45027   0.0674  93.9479 0001911 141.6596 124.5726  1.00276049 24598
JCSAT-17                
1 45245U 20013A   26194.52350787 -.00000315  00000+0  00000+0 0  9993
2 45245   5.3921 357.1129 0002837 129.1803 129.5740  1.00269502 23495
GEO-KOMPSAT-2B          
1 45246U 20013B   26194.51510824 -.00000348  00000+0  00000+0 0  9999
2 45246   0.0499 225.9300 0000738  11.6583   7.4967  1.00270666 23543
BEIDOU-3 G2             
1 45344U 20017A   26194.50557887 -.00000145  00000+0  00000+0 0  9996
2 45344   2.9150  47.6951 0001993  60.6041  85.1250  1.00269225 23520
AEHF-6 (USA 298)        
1 45465U 20022B   26194.51692825 -.00000298  00000+0  00000+0 0  9998
2 45465   2.4921 301.4793 0042080  15.3755 298.3980  1.00271770 23279
BEIDOU-3 G3             
1 45807U 20040A   26194.51155491 -.00000359  00000+0  00000+0 0  9999
2 45807   2.5086  67.4719 0001708 326.8334 191.6607  1.00264571 22332
APSTAR-6D               
1 45863U 20045A   26194.51623492 -.00000322  00000+0  00000+0 0  9997
2 45863   0.0468  90.7804 0001196  26.9431 133.5165  1.00268858 22125
KOREASAT 116            
1 45920U 20048A   26194.22749955 -.00000364  00000+0  00000+0 0  9991
2 45920   0.0130  40.3303 0000730  84.4026   4.4594  1.00267536 21901
EXPRESS 103             
1 45985U 20053A   26194.15200730 -.00000282  00000+0  00000+0 0  9992
2 45985   0.0313 268.7514 0000812 188.5811 344.9102  1.00269105 21916
EXPRESS 80              
1 45986U 20053B   26193.96993057  .00000000  00000+0  00000+0 0  9999
2 45986   0.0190  31.6259 0001704 171.7732 156.5931  1.00270988 21895
BSAT-4B                 
1 46112U 20056A   26194.51146823 -.00000353  00000+0  00000+0 0  9999
2 46112   0.0452 176.7263 0004155 315.1095  93.4943  1.00269022 21656
MEV-2                   
1 46113U 20056B   26193.99046975 -.00000012  00000+0  00000+0 0  9990
2 46113   0.0534 251.1781 0000515 344.4139  50.8437  1.00271565 80892
GALAXY 30 (G-30)        
1 46114U 20056C   26194.47058735  .00000033  00000+0  00000+0 0  9994
2 46114   0.0176  36.3156 0001952  78.2750 221.1584  1.00271249 21554
GAOFEN-13 01            
1 46610U 20071A   26194.57200075 -.00000367  00000+0  00000+0 0  9990
2 46610   0.4639  86.1568 0045226 120.6029  48.8197  1.00266412 21185
TIANTONG-1 2            
1 46916U 20082A   26194.65701109 -.00000359  00000+0  00000+0 0  9995
2 46916   0.7597 331.4219 0001311 145.1185 176.4189  1.00267262 20914
LUCAS (JDRS-1)          
1 47202U 20089A   26194.50774155 -.00000239  00000+0  00000+0 0  9993
2 47202   0.0333 284.0781 0001611 179.6325 101.2625  1.00270990 20689
SXM-7                   
1 47240U 20096A   26194.47281872 -.00000209  00000+0  00000+0 0  9995
2 47240   0.0223  97.0460 0003350  20.3141 259.0509  1.00270579  7709
CMS-01                  
1 47256U 20099A   26194.07842412 -.00000166  00000+0  00000+0 0  9996
2 47256   0.0694  91.1271 0003504 176.2633 134.7959  1.00271059 20450
TURKSAT 5A              
1 47306U 21001A   26193.99679644  .00000153  00000+0  00000+0 0  9996
2 47306   0.0127  64.5646 0000249 221.2073  34.8753  1.00270664 20227
TIANTONG-1 3            
1 47321U 21003A   26194.50557887 -.00000156  00000+0  00000+0 0  9991
2 47321   1.7372 340.9081 0003034 140.7161  73.3046  1.00270507 20225
TJS-6                   
1 47613U 21010A   26194.46534543  .00000039  00000+0  00000+0 0  9991
2 47613   0.1862 261.9876 0003052 240.0647 135.2702  1.00272080 20071
SBIRS GEO-5 (USA 315)   
1 48618U 21042A   26193.86448720 -.00000262  00000+0  00000+0 0  9995
2 48618   5.0720 329.3126 0001465 158.3358 208.1240  1.00270424 19038
FENGYUN 4B              
1 48808U 21047A   26194.29654177 -.00000331  00000+0  00000+0 0  9991
2 48808   0.2151  79.7291 0005778 272.9281 149.8180  1.00263746 18832
SXM-8                   
1 48838U 21049A   26194.14173336 -.00000207  00000+0  00000+0 0  9995
2 48838   0.0171  42.0890 0005434 348.2910 226.5183  1.00271054 18846
TIANLIAN 1-05           
1 49011U 21063A   26194.27920836  .00000104  00000+0  00000+0 0  9999
2 49011   1.6588  80.4802 0000977  93.4045 234.6323  1.00271517 18337
STAR ONE D2             
1 49055U 21069A   26194.12883365  .00000000  00000+0  00000+0 0  9997
2 49055   0.0120  18.9557 0002292 110.0637 138.2910  1.00271095 18206
EUTELSAT QUANTUM        
1 49056U 21069B   26194.49916551  .00000122  00000+0  00000+0 0  9997
2 49056   0.0144 337.9714 0001979 130.0252  50.7585  1.00270381 18199
ZHONGXING-2E            
1 49062U 21071A   26194.50912823 -.00000295  00000+0  00000+0 0  9999
2 49062   0.0677 232.6014 0001154 274.7776  65.3591  1.00271113 18309
