OBJECT_NAME,OBJECT_ID,EPOCH,MEAN_MOTION,ECCENTRICITY,INCLINATION,RA_OF_ASC_NODE,ARG_OF_PERICENTER,MEAN_ANOMALY,EPHEMERIS_TYPE,CLASSIFICATION_TYPE,NORAD_CAT_ID,ELEMENT_SET_NO,REV_AT_EPOCH,BSTAR,MEAN_MOTION_DOT,MEAN_MOTION_DDOT
ELEKTRO-L 3,2019-095A,2026-07-13T12:06:54.622368,1.00271072,.000114,0.3213,82.1165,19.5761,87.4025,0,U,44903,999,2397,0,-.1E-5,0
SHIJIAN-20 (SJ-20),2019-097A,2026-07-13T07:35:38.846112,1.00268138,.0015275,4.9827,74.7433,57.3322,317.8361,0,U,44910,999,2396,0,.128E-5,0
TJS-5,2020-002A,2026-07-13T16:23:44.913408,1.00270087,.0007837,0.0604,76.6380,337.1688,231.1890,0,U,44978,999,2397,0,-.347E-5,0
GSAT-30,2020-005A,2026-07-13T08:43:31.921824,1.00270900,.000323,0.0431,91.9484,3.0283,50.1405,0,U,45026,999,2377,0,-.168E-5,0
EUTELSAT KONNECT,2020-005B,2026-07-13T04:07:38.735904,1.00276049,.0001911,0.0674,93.9479,141.6596,124.5726,0,U,45027,999,2459,0,.48E-6,0
JCSAT-17,2020-013A,2026-07-13T12:33:51.079968,1.00269502,.0002837,5.3921,357.1129,129.1803,129.5740,0,U,45245,999,2349,0,-.315E-5,0
GEO-KOMPSAT-2B,2020-013B,2026-07-13T12:21:45.351936,1.00270666,.0000738,0.0499,225.9300,11.6583,7.4967,0,U,45246,999,2354,0,-.348E-5,0
BEIDOU-3 G2,2020-017A,2026-07-13T12:08:02.014368,1.00269225,.0001993,2.9150,47.6951,60.6041,85.1250,0,U,45344,999,2352,0,-.145E-5,0
AEHF-6 (USA 298),2020-022B,2026-07-13T12:24:22.600800,1.00271770,.004208,2.4921,301.4793,15.3755,298.3980,0,U,45465,999,2327,0,-.298E-5,0
BEIDOU-3 G3,2020-040A,2026-07-13T12:16:38.344224,1.00264571,.0001708,2.5086,67.4719,326.8334,191.6607,0,U,45807,999,2233,0,-.359E-5,0
APSTAR-6D,2020-045A,2026-07-13T12:23:22.697088,1.00268858,.0001196,0.0468,90.7804,26.9431,133.5165,0,U,45863,999,2212,0,-.322E-5,0
KOREASAT 116,2020-048A,2026-07-13T05:27:35.961120,1.00267536,.000073,0.0130,40.3303,84.4026,4.4594,0,U,45920,999,2190,0,-.364E-5,0
EXPRESS 103,2020-053A,2026-07-13T03:38:53.430720,1.00269105,.0000812,0.0313,268.7514,188.5811,344.9102,0,U,45985,999,2191,0,-.282E-5,0
EXPRESS 80,2020-053B,2026-07-12T23:16:42.001248,1.00270988,.0001704,0.0190,31.6259,171.7732,156.5931,0,U,45986,999,2189,0,0,0
BSAT-4B,2020-056A,2026-07-13T12:16:30.855072,1.00269022,.0004155,0.0452,176.7263,315.1095,93.4943,0,U,46112,999,2165,0,-.353E-5,0
MEV-2,2020-056B,2026-07-12T23:46:16.586400,1.00271565,.00005158,0.0534,251.1781,344.4139,50.8437,0,U,46113,999,8089,0,-.12E-6,0
GALAXY 30 (G-30),2020-056C,2026-07-13T11:17:38.747040,1.00271249,.0001952,0.0176,36.3156,78.2750,221.1584,0,U,46114,999,2155,0,.33E-6,0
GAOFEN-13 01,2020-071A,2026-07-13T13:43:40.864800,1.00266412,.0045226,0.4639,86.1568,120.6029,48.8197,0,U,46610,999,2118,0,-.367E-5,0
TIANTONG-1 2,2020-082A,2026-07-13T15:46:05.758176,1.00267262,.0001311,0.7597,331.4219,145.1185,176.4189,0,U,46916,999,2091,0,-.359E-5,0
LUCAS (JDRS-1),2020-089A,2026-07-13T12:11:08.869920,1.00270990,.0001611,0.0333,284.0781,179.6325,101.2625,0,U,47202,999,2068,0,-.239E-5,0
SXM-7,2020-096A,2026-07-13T11:20:51.537408,1.00270579,.000335,0.0223,97.0460,20.3141,259.0509,0,U,47240,999,770,0,-.209E-5,0
CMS-01,2020-099A,2026-07-13T01:52:55.843968,1.00271059,.00035047,0.0694,91.1271,176.2633,134.7959,0,U,47256,999,2045,0,-.166E-5,0
TURKSAT 5A,2021-001A,2026-07-12T23:55:23.212416,1.00270664,.00002497,0.0127,64.5646,221.2073,34.8753,0,U,47306,999,2022,0,.153E-5,0
TIANTONG-1 3,2021-003A,2026-07-13T12:08:02.014368,1.00270507,.0003034,1.7372,340.9081,140.7161,73.3046,0,U,47321,999,2022,0,-.156E-5,0
TJS-6,2021-010A,2026-07-13T11:10:05.845152,1.00272080,.0003052,0.1862,261.9876,240.0647,135.2702,0,U,47613,999,2007,0,.39E-6,0
SBIRS GEO-5 (USA 315),2021-042A,2026-07-12T20:44:51.694080,1.00270424,.00014655,5.0720,329.3126,158.3358,208.1240,0,U,48618,999,1903,0,-.262E-5,0
FENGYUN 4B,2021-047A,2026-07-13T07:07:01.208928,1.00263746,.0005778,0.2151,79.7291,272.9281,149.8180,0,U,48808,999,1883,0,-.331E-5,0
SXM-8,2021-049A,2026-07-13T03:24:05.762304,1.00271054,.00054346,0.0171,42.0890,348.2910,226.5183,0,U,48838,999,1884,0,-.207E-5,0
TIANLIAN 1-05,2021-063A,2026-07-13T06:42:03.602304,1.00271517,.0000977,1.6588,80.4802,93.4045,234.6323,0,U,49011,999,1833,0,.104E-5,0
STAR ONE D2,2021-069A,2026-07-13T03:05:31.227360,1.00271095,.0002292,0.0120,18.9557,110.0637,138.2910,0,U,49055,999,1820,0,0,0
EUTELSAT QUANTUM,2021-069B,2026-07-13T11:58:47.900064,1.00270381,.0001979,0.0144,337.9714,130.0252,50.7585,0,U,49056,999,1819,0,.122E-5,0
ZHONGXING-2E,2021-071A,2026-07-13T12:13:08.679072,1.00271113,.0001154,0.0677,232.6014,274.7776,65.3591,0,U,49062,999,1830,0,-.295E-5,0
